{"type": "FeatureCollection", "features": [ {"type": "Feature", "properties": {"norad_id": 67151, "name": "KUIPER-00246", "group": "last-30-days", "lat": -51.85178710219415, "lon": -26.764459299186456, "alt_km": 465.4484056775991, "timestamp": "2025-12-25T16:53:13.376484+00:00", "meta": {"OBJECT_NAME": "KUIPER-00246", "OBJECT_ID": "2025-301U", "EPOCH": "2025-12-25T06:00:04.000320", "MEAN_MOTION": 15.35886061, "ECCENTRICITY": 0.00039779, "INCLINATION": 51.8733, "RA_OF_ASC_NODE": 64.7645, "ARG_OF_PERICENTER": 107.7596, "MEAN_ANOMALY": 173.0791, "EPHEMERIS_TYPE": 0, "CLASSIFICATION_TYPE": "U", "NORAD_CAT_ID": 67151, "ELEMENT_SET_NO": 999, "REV_AT_EPOCH": 230, "BSTAR": 0.000705502, "MEAN_MOTION_DOT": 0.00024721, "MEAN_MOTION_DDOT": 0}, "tle": {"line1": "1 67151U 25301U   25359.25004630  .00024721  00000+0  70550-3 0  9990", "line2": "2 67151  51.8733  64.7645 0003977 107.7596 173.0791 15.35886061  2308"}}, "geometry": {"type": "Point", "coordinates": [-26.764459299186456, -51.85178710219415]}}, {"type": "Feature", "properties": {"norad_id": 67152, "name": "KUIPER-00247", "group": "last-30-days", "lat": -17.655946130804008, "lon": -102.79775568006889, "alt_km": 461.75398831799976, "timestamp": "2025-12-25T16:53:13.376494+00:00", "meta": {"OBJECT_NAME": "KUIPER-00247", "OBJECT_ID": "2025-301V", "EPOCH": "2025-12-25T06:00:04.000320", "MEAN_MOTION": 15.33944667, "ECCENTRICITY": 0.00113819, "INCLINATION": 51.8625, "RA_OF_ASC_NODE": 64.9029, "ARG_OF_PERICENTER": 150.7305, "MEAN_ANOMALY": 65.3858, "EPHEMERIS_TYPE": 0, "CLASSIFICATION_TYPE": "U", "NORAD_CAT_ID": 67152, "ELEMENT_SET_NO": 999, "REV_AT_EPOCH": 220, "BSTAR": 0.00059762693, "MEAN_MOTION_DOT": 0.00019631, "MEAN_MOTION_DDOT": 0}, "tle": {"line1": "1 67152U 25301V   25359.25004630  .00019631  00000+0  59763-3 0  9998", "line2": "2 67152  51.8625  64.9029 0011381 150.7305  65.3858 15.33944667  2202"}}, "geometry": {"type": "Point", "coordinates": [-102.79775568006889, -17.655946130804008]}}, {"type": "Feature", "properties": {"norad_id": 67153, "name": "KUIPER-00248", "group": "last-30-days", "lat": -33.9957515527549, "lon": -85.33494067700398, "alt_km": 465.415764959489, "timestamp": "2025-12-25T16:53:13.376504+00:00", "meta": {"OBJECT_NAME": "KUIPER-00248", "OBJECT_ID": "2025-301W", "EPOCH": "2025-12-25T06:00:04.000320", "MEAN_MOTION": 15.34625406, "ECCENTRICITY": 0.00088509, "INCLINATION": 51.8672, "RA_OF_ASC_NODE": 64.8588, "ARG_OF_PERICENTER": 138.2706, "MEAN_ANOMALY": 99.3807, "EPHEMERIS_TYPE": 0, "CLASSIFICATION_TYPE": "U", "NORAD_CAT_ID": 67153, "ELEMENT_SET_NO": 999, "REV_AT_EPOCH": 245, "BSTAR": 0.00066962912, "MEAN_MOTION_DOT": 0.00022521, "MEAN_MOTION_DDOT": 0}, "tle": {"line1": "1 67153U 25301W   25359.25004630  .00022521  00000+0  66963-3 0  9991", "line2": "2 67153  51.8672  64.8588 0008850 138.2706  99.3807 15.34625406  2453"}}, "geometry": {"type": "Point", "coordinates": [-85.33494067700398, -33.9957515527549]}}, {"type": "Feature", "properties": {"norad_id": 67154, "name": "KUIPER-00249", "group": "last-30-days", "lat": -38.61474399402384, "lon": -78.47468037517932, "alt_km": 466.23752035632697, "timestamp": "2025-12-25T16:53:13.376514+00:00", "meta": {"OBJECT_NAME": "KUIPER-00249", "OBJECT_ID": "2025-301X", "EPOCH": "2025-12-25T06:00:04.000320", "MEAN_MOTION": 15.34770737, "ECCENTRICITY": 0.00078234, "INCLINATION": 51.8648, "RA_OF_ASC_NODE": 64.845, "ARG_OF_PERICENTER": 135.172, "MEAN_ANOMALY": 109.4705, "EPHEMERIS_TYPE": 0, "CLASSIFICATION_TYPE": "U", "NORAD_CAT_ID": 67154, "ELEMENT_SET_NO": 999, "REV_AT_EPOCH": 213, "BSTAR": 0.00071576841, "MEAN_MOTION_DOT": 0.00024212, "MEAN_MOTION_DDOT": 0}, "tle": {"line1": "1 67154U 25301X   25359.25004630  .00024212  00000+0  71577-3 0  9998", "line2": "2 67154  51.8648  64.8450 0007823 135.1720 109.4705 15.34770737  2139"}}, "geometry": {"type": "Point", "coordinates": [-78.47468037517932, -38.61474399402384]}}, {"type": "Feature", "properties": {"norad_id": 67155, "name": "KUIPER-00250", "group": "last-30-days", "lat": -47.10705219110706, "lon": -59.65325704046016, "alt_km": 466.6985728970558, "timestamp": "2025-12-25T16:53:13.376524+00:00", "meta": {"OBJECT_NAME": "KUIPER-00250", "OBJECT_ID": "2025-301Y", "EPOCH": "2025-12-25T06:00:04.000320", "MEAN_MOTION": 15.35295142, "ECCENTRICITY": 0.00063515, "INCLINATION": 51.871, "RA_OF_ASC_NODE": 64.811, "ARG_OF_PERICENTER": 126.5434, "MEAN_ANOMALY": 133.4544, "EPHEMERIS_TYPE": 0, "CLASSIFICATION_TYPE": "U", "NORAD_CAT_ID": 67155, "ELEMENT_SET_NO": 999, "REV_AT_EPOCH": 231, "BSTAR": 0.0006648438, "MEAN_MOTION_DOT": 0.00022834, "MEAN_MOTION_DDOT": 0}, "tle": {"line1": "1 67155U 25301Y   25359.25004630  .00022834  00000+0  66484-3 0  9998", "line2": "2 67155  51.8710  64.8110 0006351 126.5434 133.4544 15.35295142  2315"}}, "geometry": {"type": "Point", "coordinates": [-59.65325704046016, -47.10705219110706]}}, {"type": "Feature", "properties": {"norad_id": 67156, "name": "KUIPER-00251", "group": "last-30-days", "lat": -35.99119755412955, "lon": -82.54075295214635, "alt_km": 466.0534747806387, "timestamp": "2025-12-25T16:53:13.376536+00:00", "meta": {"OBJECT_NAME": "KUIPER-00251", "OBJECT_ID": "2025-301Z", "EPOCH": "2025-12-25T06:00:04.000320", "MEAN_MOTION": 15.34717111, "ECCENTRICITY": 0.00089076, "INCLINATION": 51.866, "RA_OF_ASC_NODE": 64.8531, "ARG_OF_PERICENTER": 133.7251, "MEAN_ANOMALY": 106.819, "EPHEMERIS_TYPE": 0, "CLASSIFICATION_TYPE": "U", "NORAD_CAT_ID": 67156, "ELEMENT_SET_NO": 999, "REV_AT_EPOCH": 247, "BSTAR": 0.00067585695, "MEAN_MOTION_DOT": 0.00022803, "MEAN_MOTION_DDOT": 0}, "tle": {"line1": "1 67156U 25301Z   25359.25004630  .00022803  00000+0  67586-3 0  9999", "line2": "2 67156  51.8660  64.8531 0008907 133.7251 106.8190 15.34717111  2475"}}, "geometry": {"type": "Point", "coordinates": [-82.54075295214635, -35.99119755412955]}}, {"type": "Feature", "properties": {"norad_id": 67157, "name": "KUIPER-00252", "group": "last-30-days", "lat": -26.057394385276876, "lon": -94.71169588552225, "alt_km": 463.64942133803197, "timestamp": "2025-12-25T16:53:13.376547+00:00", "meta": {"OBJECT_NAME": "KUIPER-00252", "OBJECT_ID": "2025-301AA", "EPOCH": "2025-12-25T06:00:04.000320", "MEAN_MOTION": 15.34289045, "ECCENTRICITY": 0.00101929, "INCLINATION": 51.865, "RA_OF_ASC_NODE": 64.8812, "ARG_OF_PERICENTER": 145.4872, "MEAN_ANOMALY": 81.3391, "EPHEMERIS_TYPE": 0, "CLASSIFICATION_TYPE": "U", "NORAD_CAT_ID": 67157, "ELEMENT_SET_NO": 999, "REV_AT_EPOCH": 216, "BSTAR": 0.00061083339, "MEAN_MOTION_DOT": 0.00020291, "MEAN_MOTION_DDOT": 0}, "tle": {"line1": "1 67157U 25301AA  25359.25004630  .00020291  00000+0  61083-3 0  9995", "line2": "2 67157  51.8650  64.8812 0010192 145.4872  81.3391 15.34289045  2161"}}, "geometry": {"type": "Point", "coordinates": [-94.71169588552225, -26.057394385276876]}}, {"type": "Feature", "properties": {"norad_id": 67158, "name": "KUIPER-00261", "group": "last-30-days", "lat": -49.197518109069264, "lon": -51.88645238412324, "alt_km": 466.77599674202975, "timestamp": "2025-12-25T16:53:13.376556+00:00", "meta": {"OBJECT_NAME": "KUIPER-00261", "OBJECT_ID": "2025-301AB", "EPOCH": "2025-12-25T06:00:04.000320", "MEAN_MOTION": 15.35361016, "ECCENTRICITY": 0.00057626, "INCLINATION": 51.8691, "RA_OF_ASC_NODE": 64.8013, "ARG_OF_PERICENTER": 124.9404, "MEAN_ANOMALY": 140.5604, "EPHEMERIS_TYPE": 0, "CLASSIFICATION_TYPE": "U", "NORAD_CAT_ID": 67158, "ELEMENT_SET_NO": 999, "REV_AT_EPOCH": 175, "BSTAR": 0.00064572726, "MEAN_MOTION_DOT": 0.0002221, "MEAN_MOTION_DDOT": 0}, "tle": {"line1": "1 67158U 25301AB  25359.25004630  .00022210  00000+0  64573-3 0  9996", "line2": "2 67158  51.8691  64.8013 0005762 124.9404 140.5604 15.35361016  1759"}}, "geometry": {"type": "Point", "coordinates": [-51.88645238412324, -49.197518109069264]}}, {"type": "Feature", "properties": {"norad_id": 67159, "name": "KUIPER-00265", "group": "last-30-days", "lat": -48.75226710254855, "lon": -1.0498625264208439, "alt_km": 462.74115148359397, "timestamp": "2025-12-25T16:53:13.376566+00:00", "meta": {"OBJECT_NAME": "KUIPER-00265", "OBJECT_ID": "2025-301AC", "EPOCH": "2025-12-25T06:00:04.000320", "MEAN_MOTION": 15.36352661, "ECCENTRICITY": 0.00019561, "INCLINATION": 51.8736, "RA_OF_ASC_NODE": 64.7327, "ARG_OF_PERICENTER": 99.7586, "MEAN_ANOMALY": 197.0102, "EPHEMERIS_TYPE": 0, "CLASSIFICATION_TYPE": "U", "NORAD_CAT_ID": 67159, "ELEMENT_SET_NO": 999, "REV_AT_EPOCH": 231, "BSTAR": 0.0006436349, "MEAN_MOTION_DOT": 0.00022855, "MEAN_MOTION_DDOT": 0}, "tle": {"line1": "1 67159U 25301AC  25359.25004630  .00022855  00000+0  64363-3 0  9999", "line2": "2 67159  51.8736  64.7327 0001956  99.7586 197.0102 15.36352661  2318"}}, "geometry": {"type": "Point", "coordinates": [-1.0498625264208439, -48.75226710254855]}}, {"type": "Feature", "properties": {"norad_id": 67160, "name": "GALILEO A", "group": "last-30-days", "lat": 19.58082459602244, "lon": 121.86017786610671, "alt_km": 22962.239782791345, "timestamp": "2025-12-25T16:53:13.376577+00:00", "meta": {"OBJECT_NAME": "GALILEO A", "OBJECT_ID": "2025-302A", "EPOCH": "2025-12-18T03:30:19.486368", "MEAN_MOTION": 1.72906186, "ECCENTRICITY": 0.00084238, "INCLINATION": 54.2406, "RA_OF_ASC_NODE": 107.2544, "ARG_OF_PERICENTER": 237.6458, "MEAN_ANOMALY": 122.2317, "EPHEMERIS_TYPE": 0, "CLASSIFICATION_TYPE": "U", "NORAD_CAT_ID": 67160, "ELEMENT_SET_NO": 999, "REV_AT_EPOCH": 2, "BSTAR": 0, "MEAN_MOTION_DOT": -7e-08, "MEAN_MOTION_DDOT": 0}, "tle": {"line1": "1 67160U 25302A   25352.14605887 -.00000007  00000+0  00000+0 0  9994", "line2": "2 67160  54.2406 107.2544 0008423 237.6458 122.2317  1.72906186    28"}}, "geometry": {"type": "Point", "coordinates": [121.86017786610671, 19.58082459602244]}}]}